<?xml version="1.0" encoding="UTF-8"?>
<ndm xmlns:xsi="http://www.w3.org/2001/XMLSchema-instance"
    xsi:noNamespaceSchemaLocation="https://sanaregistry.org/r/ndmxml_unqualified/ndmxml-2.0.0-master-2.0.xsd">
    <omm id="CCSDS_OMM_VERS" version="2.0">
        <header>
            <CREATION_DATE />
            <ORIGINATOR />
        </header>
        <body>
            <segment>
                <metadata>
                    <OBJECT_NAME>BEIDOU-3 M26</OBJECT_NAME>
                    <OBJECT_ID>2023-207B</OBJECT_ID>
                    <CENTER_NAME>EARTH</CENTER_NAME>
                    <REF_FRAME>TEME</REF_FRAME>
                    <TIME_SYSTEM>UTC</TIME_SYSTEM>
                    <MEAN_ELEMENT_THEORY>SGP4</MEAN_ELEMENT_THEORY>
                </metadata>
                <data>
                    <meanElements>
                        <EPOCH>2024-08-12T05:18:14.150304</EPOCH>
                        <MEAN_MOTION>1.86232042</MEAN_MOTION>
                        <ECCENTRICITY>.0001529</ECCENTRICITY>
                        <INCLINATION>55.1565</INCLINATION>
                        <RA_OF_ASC_NODE>85.1407</RA_OF_ASC_NODE>
                        <ARG_OF_PERICENTER>258.6609</ARG_OF_PERICENTER>
                        <MEAN_ANOMALY>101.3999</MEAN_ANOMALY>
                    </meanElements>
                    <tleParameters>
                        <EPHEMERIS_TYPE>0</EPHEMERIS_TYPE>
                        <CLASSIFICATION_TYPE>U</CLASSIFICATION_TYPE>
                        <NORAD_CAT_ID>58655</NORAD_CAT_ID>
                        <ELEMENT_SET_NO>999</ELEMENT_SET_NO>
                        <REV_AT_EPOCH>427</REV_AT_EPOCH>
                        <BSTAR>0</BSTAR>
                        <MEAN_MOTION_DOT>-.31E-6</MEAN_MOTION_DOT>
                        <MEAN_MOTION_DDOT>0</MEAN_MOTION_DDOT>
                    </tleParameters>
                </data>
            </segment>
        </body>
    </omm>
    <omm id="CCSDS_OMM_VERS" version="2.0">
        <header>
            <CREATION_DATE />
            <ORIGINATOR />
        </header>
        <body>
            <segment>
                <metadata>
                    <OBJECT_NAME>GSAT0225 (GALILEO 29)</OBJECT_NAME>
                    <OBJECT_ID>2024-079A</OBJECT_ID>
                    <CENTER_NAME>EARTH</CENTER_NAME>
                    <REF_FRAME>TEME</REF_FRAME>
                    <TIME_SYSTEM>UTC</TIME_SYSTEM>
                    <MEAN_ELEMENT_THEORY>SGP4</MEAN_ELEMENT_THEORY>
                </metadata>
                <data>
                    <meanElements>
                        <EPOCH>2024-08-10T08:42:26.064288</EPOCH>
                        <MEAN_MOTION>1.70474260</MEAN_MOTION>
                        <ECCENTRICITY>.0001368</ECCENTRICITY>
                        <INCLINATION>54.7275</INCLINATION>
                        <RA_OF_ASC_NODE>119.9947</RA_OF_ASC_NODE>
                        <ARG_OF_PERICENTER>197.5598</ARG_OF_PERICENTER>
                        <MEAN_ANOMALY>337.2786</MEAN_ANOMALY>
                    </meanElements>
                    <tleParameters>
                        <EPHEMERIS_TYPE>0</EPHEMERIS_TYPE>
                        <CLASSIFICATION_TYPE>U</CLASSIFICATION_TYPE>
                        <NORAD_CAT_ID>59598</NORAD_CAT_ID>
                        <ELEMENT_SET_NO>999</ELEMENT_SET_NO>
                        <REV_AT_EPOCH>179</REV_AT_EPOCH>
                        <BSTAR>0</BSTAR>
                        <MEAN_MOTION_DOT>-.8E-7</MEAN_MOTION_DOT>
                        <MEAN_MOTION_DDOT>0</MEAN_MOTION_DDOT>
                    </tleParameters>
                </data>
            </segment>
        </body>
    </omm>
    <omm id="CCSDS_OMM_VERS" version="2.0">
        <header>
            <CREATION_DATE />
            <ORIGINATOR />
        </header>
        <body>
            <segment>
                <metadata>
                    <OBJECT_NAME>GSAT0227 (GALILEO 30)</OBJECT_NAME>
                    <OBJECT_ID>2024-079C</OBJECT_ID>
                    <CENTER_NAME>EARTH</CENTER_NAME>
                    <REF_FRAME>TEME</REF_FRAME>
                    <TIME_SYSTEM>UTC</TIME_SYSTEM>
                    <MEAN_ELEMENT_THEORY>SGP4</MEAN_ELEMENT_THEORY>
                </metadata>
                <data>
                    <meanElements>
                        <EPOCH>2024-08-12T14:34:57.956736</EPOCH>
                        <MEAN_MOTION>1.70474214</MEAN_MOTION>
                        <ECCENTRICITY>.0001732</ECCENTRICITY>
                        <INCLINATION>54.7237</INCLINATION>
                        <RA_OF_ASC_NODE>119.9322</RA_OF_ASC_NODE>
                        <ARG_OF_PERICENTER>97.6256</ARG_OF_PERICENTER>
                        <MEAN_ANOMALY>262.4481</MEAN_ANOMALY>
                    </meanElements>
                    <tleParameters>
                        <EPHEMERIS_TYPE>0</EPHEMERIS_TYPE>
                        <CLASSIFICATION_TYPE>U</CLASSIFICATION_TYPE>
                        <NORAD_CAT_ID>59600</NORAD_CAT_ID>
                        <ELEMENT_SET_NO>999</ELEMENT_SET_NO>
                        <REV_AT_EPOCH>188</REV_AT_EPOCH>
                        <BSTAR>0</BSTAR>
                        <MEAN_MOTION_DOT>-.8E-7</MEAN_MOTION_DOT>
                        <MEAN_MOTION_DDOT>0</MEAN_MOTION_DDOT>
                    </tleParameters>
                </data>
            </segment>
        </body>
    </omm>
</ndm>