BEIDOU-3 M26            
1 58655U 23207B   24225.22099711 -.00000031  00000+0  00000+0 0  9992
2 58655  55.1565  85.1407 0001529 258.6609 101.3999  1.86232042  4279
GSAT0225 (GALILEO 29)   
1 59598U 24079A   24223.36280167 -.00000008  00000+0  00000+0 0  9991
2 59598  54.7275 119.9947 0001368 197.5598 337.2786  1.70474260  1794
GSAT0227 (GALILEO 30)   
1 59600U 24079C   24225.60761524 -.00000008  00000+0  00000+0 0  9995
2 59600  54.7237 119.9322 0001732  97.6256 262.4481  1.70474214  1889
